{
  "D00": {
    "worldName": "D00",
    "textDetail": "DJump_D00",
    "isCathedral": "False",
    "bgmLabelName": "0",
    "placeName": "Place_D00",
    "vehicle": ["SampleShip1","SampleShip2","SampleMecha"],
    "TowerScreenTexture": "BG_A00_white00",
    "isBuild": "True",
    "isRelease": "False"
  },
  "D01": {
    "worldName": "D01",
    "textDetail": "DJump_D01",
    "isCathedral": "False",
    "bgmLabelName": "0",
    "placeName": "Place_D01",
    "vehicle": ["0"],
    "TowerScreenTexture": "BG_A00_white00",
    "isBuild": "False",
    "isRelease": "False"
  },
  "D02": {
    "worldName": "D02",
    "textDetail": "DJump_D02",
    "isCathedral": "False",
    "bgmLabelName": "0",
    "placeName": "Place_D02",
    "vehicle": ["0"],
    "TowerScreenTexture": "BG_A00_white00",
    "isBuild": "True",
    "isRelease": "False"
  },
  "D03": {
    "worldName": "D03",
    "textDetail": "DJump_D03",
    "isCathedral": "False",
    "bgmLabelName": "0",
    "placeName": "Place_D03",
    "vehicle": ["0"],
    "TowerScreenTexture": "BG_A00_white00",
    "isBuild": "True",
    "isRelease": "False"
  },
  "D04": {
    "worldName": "D04",
    "textDetail": "DJump_D04",
    "isCathedral": "False",
    "bgmLabelName": "0",
    "placeName": "Place_D04",
    "vehicle": ["0"],
    "TowerScreenTexture": "BG_A00_white00",
    "isBuild": "True",
    "isRelease": "False"
  },
  "D05": {
    "worldName": "D05",
    "textDetail": "DJump_D05",
    "isCathedral": "False",
    "bgmLabelName": "0",
    "placeName": "Place_D05",
    "vehicle": ["0"],
    "TowerScreenTexture": "BG_A00_white00",
    "isBuild": "True",
    "isRelease": "False"
  },
  "D06": {
    "worldName": "D06",
    "textDetail": "DJump_D06",
    "isCathedral": "False",
    "bgmLabelName": "0",
    "placeName": "Place_D06",
    "vehicle": ["0"],
    "TowerScreenTexture": "BG_A00_white00",
    "isBuild": "True",
    "isRelease": "False"
  },
  "D07": {
    "worldName": "D07",
    "textDetail": "DJump_D07",
    "isCathedral": "False",
    "bgmLabelName": "0",
    "placeName": "Place_D07",
    "vehicle": ["0"],
    "TowerScreenTexture": "BG_A00_white00",
    "isBuild": "True",
    "isRelease": "False"
  },
  "D08": {
    "worldName": "D08",
    "textDetail": "DJump_D08",
    "isCathedral": "False",
    "bgmLabelName": "0",
    "placeName": "Place_D08",
    "vehicle": ["0"],
    "TowerScreenTexture": "BG_A00_white00",
    "isBuild": "False",
    "isRelease": "False"
  },
  "D09": {
    "worldName": "D09",
    "textDetail": "DJump_D09",
    "isCathedral": "False",
    "bgmLabelName": "0",
    "placeName": "Place_D09",
    "vehicle": ["0"],
    "TowerScreenTexture": "BG_A00_white00",
    "isBuild": "False",
    "isRelease": "False"
  },
  "D10": {
    "worldName": "D10",
    "textDetail": "DJump_D10",
    "isCathedral": "False",
    "bgmLabelName": "0",
    "placeName": "Place_D10",
    "vehicle": ["0"],
    "TowerScreenTexture": "BG_A00_white00",
    "isBuild": "False",
    "isRelease": "False"
  },
  "D11": {
    "worldName": "D11",
    "textDetail": "DJump_D11",
    "isCathedral": "False",
    "bgmLabelName": "0",
    "placeName": "Place_D11",
    "vehicle": ["0"],
    "TowerScreenTexture": "BG_A00_white00",
    "isBuild": "False",
    "isRelease": "False"
  },
  "D12": {
    "worldName": "D12",
    "textDetail": "DJump_D12",
    "isCathedral": "False",
    "bgmLabelName": "0",
    "placeName": "Place_D12",
    "vehicle": ["0"],
    "TowerScreenTexture": "BG_A00_white00",
    "isBuild": "False",
    "isRelease": "False"
  },
  "D13": {
    "worldName": "D13",
    "textDetail": "DJump_D13",
    "isCathedral": "False",
    "bgmLabelName": "0",
    "placeName": "Place_D13",
    "vehicle": ["0"],
    "TowerScreenTexture": "BG_A00_white00",
    "isBuild": "False",
    "isRelease": "False"
  },
  "D14": {
    "worldName": "D14",
    "textDetail": "DJump_D14",
    "isCathedral": "False",
    "bgmLabelName": "0",
    "placeName": "Place_D14",
    "vehicle": ["0"],
    "TowerScreenTexture": "BG_A00_white00",
    "isBuild": "False",
    "isRelease": "False"
  },
  "D15": {
    "worldName": "D15",
    "textDetail": "DJump_D15",
    "isCathedral": "False",
    "bgmLabelName": "0",
    "placeName": "Place_D15",
    "vehicle": ["0"],
    "TowerScreenTexture": "BG_A00_white00",
    "isBuild": "False",
    "isRelease": "False"
  },
  "D16": {
    "worldName": "D16",
    "textDetail": "DJump_D16",
    "isCathedral": "False",
    "bgmLabelName": "0",
    "placeName": "Place_D16",
    "vehicle": ["0"],
    "TowerScreenTexture": "BG_A00_white00",
    "isBuild": "False",
    "isRelease": "False"
  },
  "D17": {
    "worldName": "D17",
    "textDetail": "DJump_D17",
    "isCathedral": "False",
    "bgmLabelName": "0",
    "placeName": "Place_D17",
    "vehicle": ["0"],
    "TowerScreenTexture": "BG_A00_white00",
    "isBuild": "False",
    "isRelease": "False"
  },
  "D18": {
    "worldName": "D18",
    "textDetail": "DJump_D18",
    "isCathedral": "False",
    "bgmLabelName": "0",
    "placeName": "Place_D18",
    "vehicle": ["0"],
    "TowerScreenTexture": "BG_A00_white00",
    "isBuild": "False",
    "isRelease": "False"
  },
  "D20": {
    "worldName": "D20",
    "textDetail": "DJump_D20",
    "isCathedral": "False",
    "bgmLabelName": "0",
    "placeName": "Place_D20",
    "vehicle": ["0"],
    "TowerScreenTexture": "BG_A00_white00",
    "isBuild": "False",
    "isRelease": "False"
  },
  "D21": {
    "worldName": "D21",
    "textDetail": "DJump_D21",
    "isCathedral": "False",
    "bgmLabelName": "0",
    "placeName": "Place_D21",
    "vehicle": ["0"],
    "TowerScreenTexture": "BG_A00_white00",
    "isBuild": "False",
    "isRelease": "False"
  },
  "D22": {
    "worldName": "D22",
    "textDetail": "DJump_D22",
    "isCathedral": "False",
    "bgmLabelName": "0",
    "placeName": "Place_D22",
    "vehicle": ["SampleMecha"],
    "TowerScreenTexture": "BG_A00_white00",
    "isBuild": "False",
    "isRelease": "False"
  },
  "D23": {
    "worldName": "D23",
    "textDetail": "DJump_D23",
    "isCathedral": "False",
    "bgmLabelName": "0",
    "placeName": "Place_D23",
    "vehicle": ["SampleMecha"],
    "TowerScreenTexture": "BG_A00_white00",
    "isBuild": "False",
    "isRelease": "False"
  },
  "D24": {
    "worldName": "D24",
    "textDetail": "DJump_D24",
    "isCathedral": "False",
    "bgmLabelName": "0",
    "placeName": "Place_D24",
    "vehicle": ["SampleMecha"],
    "TowerScreenTexture": "BG_A00_white00",
    "isBuild": "False",
    "isRelease": "False"
  },
  "D25": {
    "worldName": "D25",
    "textDetail": "DJump_D25",
    "isCathedral": "False",
    "bgmLabelName": "0",
    "placeName": "Place_D25",
    "vehicle": ["0"],
    "TowerScreenTexture": "BG_A00_white00",
    "isBuild": "False",
    "isRelease": "False"
  },
  "D26": {
    "worldName": "D26",
    "textDetail": "DJump_D26",
    "isCathedral": "False",
    "bgmLabelName": "0",
    "placeName": "Place_D26",
    "vehicle": ["0"],
    "TowerScreenTexture": "BG_A00_white00",
    "isBuild": "False",
    "isRelease": "False"
  },
  "D27": {
    "worldName": "D27",
    "textDetail": "DJump_D27",
    "isCathedral": "False",
    "bgmLabelName": "0",
    "placeName": "Place_D27",
    "vehicle": ["0"],
    "TowerScreenTexture": "BG_A00_white00",
    "isBuild": "False",
    "isRelease": "False"
  },
  "D28": {
    "worldName": "D28",
    "textDetail": "DJump_D28",
    "isCathedral": "False",
    "bgmLabelName": "0",
    "placeName": "Place_D28",
    "vehicle": ["0"],
    "TowerScreenTexture": "BG_A00_white00",
    "isBuild": "False",
    "isRelease": "False"
  },
  "D29": {
    "worldName": "D29",
    "textDetail": "DJump_D29",
    "isCathedral": "False",
    "bgmLabelName": "0",
    "placeName": "Place_D29",
    "vehicle": ["0"],
    "TowerScreenTexture": "BG_A00_white00",
    "isBuild": "False",
    "isRelease": "False"
  },
  "D30": {
    "worldName": "D30",
    "textDetail": "DJump_D30",
    "isCathedral": "False",
    "bgmLabelName": "0",
    "placeName": "Place_D30",
    "vehicle": ["0"],
    "TowerScreenTexture": "BG_A00_white00",
    "isBuild": "False",
    "isRelease": "False"
  },
  "D31": {
    "worldName": "D31",
    "textDetail": "DJump_D31",
    "isCathedral": "False",
    "bgmLabelName": "0",
    "placeName": "Place_D31",
    "vehicle": ["0"],
    "TowerScreenTexture": "BG_A00_white00",
    "isBuild": "False",
    "isRelease": "False"
  },
  "D32": {
    "worldName": "D32",
    "textDetail": "DJump_D32",
    "isCathedral": "False",
    "bgmLabelName": "0",
    "placeName": "Place_D32",
    "vehicle": ["0"],
    "TowerScreenTexture": "BG_A00_white00",
    "isBuild": "False",
    "isRelease": "False"
  },
  "D33": {
    "worldName": "D33",
    "textDetail": "DJump_D33",
    "isCathedral": "False",
    "bgmLabelName": "0",
    "placeName": "Place_D33",
    "vehicle": ["0"],
    "TowerScreenTexture": "BG_A00_white00",
    "isBuild": "False",
    "isRelease": "False"
  },
  "D34": {
    "worldName": "D34",
    "textDetail": "DJump_D34",
    "isCathedral": "False",
    "bgmLabelName": "0",
    "placeName": "Place_D34",
    "vehicle": ["0"],
    "TowerScreenTexture": "BG_A00_white00",
    "isBuild": "False",
    "isRelease": "False"
  },
  "D35": {
    "worldName": "D35",
    "textDetail": "DJump_D35",
    "isCathedral": "False",
    "bgmLabelName": "0",
    "placeName": "Place_D35",
    "vehicle": ["0"],
    "TowerScreenTexture": "BG_A00_white00",
    "isBuild": "False",
    "isRelease": "False"
  },
  "D36": {
    "worldName": "D36",
    "textDetail": "DJump_D36",
    "isCathedral": "False",
    "bgmLabelName": "0",
    "placeName": "Place_D36",
    "vehicle": ["0"],
    "TowerScreenTexture": "BG_A00_white00",
    "isBuild": "True",
    "isRelease": "False"
  },
  "D37": {
    "worldName": "D37",
    "textDetail": "DJump_D37",
    "isCathedral": "False",
    "bgmLabelName": "0",
    "placeName": "Place_D37",
    "vehicle": ["0"],
    "TowerScreenTexture": "BG_A00_white00",
    "isBuild": "False",
    "isRelease": "False"
  },
  "D38": {
    "worldName": "D38",
    "textDetail": "DJump_D38",
    "isCathedral": "False",
    "bgmLabelName": "0",
    "placeName": "Place_D38",
    "vehicle": ["0"],
    "TowerScreenTexture": "BG_A00_white00",
    "isBuild": "True",
    "isRelease": "False"
  },
  "D39": {
    "worldName": "D39",
    "textDetail": "DJump_D39",
    "isCathedral": "False",
    "bgmLabelName": "0",
    "placeName": "Place_D39",
    "vehicle": ["0"],
    "TowerScreenTexture": "BG_A00_white00",
    "isBuild": "True",
    "isRelease": "False"
  },
  "C01": {
    "worldName": "C01",
    "textDetail": "WORLD_AREADATA_C01_DETALL",
    "isCathedral": "True",
    "bgmLabelName": "0",
    "placeName": "WORLD_AREADATA_C01_PLACE",
    "vehicle": ["C01EmeraldRide"],
    "TowerScreenTexture": "BG_A00_white00",
    "isBuild": "True",
    "isRelease": "True"
  },
  "A00": {
    "worldName": "A00",
    "textDetail": "DJump_A00",
    "isCathedral": "False",
    "bgmLabelName": "0",
    "placeName": "Place_A00",
    "vehicle": ["0"],
    "TowerScreenTexture": "BG_A00_white00",
    "isBuild": "False",
    "isRelease": "False"
  },
  "A01": {
    "worldName": "A01",
    "textDetail": "DJump_A01",
    "isCathedral": "False",
    "bgmLabelName": "0",
    "placeName": "Place_A01",
    "vehicle": ["0"],
    "TowerScreenTexture": "BG_A00_white00",
    "isBuild": "False",
    "isRelease": "False"
  },
  "A02": {
    "worldName": "A02",
    "textDetail": "DJump_A02",
    "isCathedral": "False",
    "bgmLabelName": "0",
    "placeName": "Place_A02",
    "vehicle": ["0"],
    "TowerScreenTexture": "BG_A00_white00",
    "isBuild": "False",
    "isRelease": "False"
  },
  "A03": {
    "worldName": "A03",
    "textDetail": "DJump_A03",
    "isCathedral": "False",
    "bgmLabelName": "0",
    "placeName": "Place_A03",
    "vehicle": ["0"],
    "TowerScreenTexture": "BG_A00_white00",
    "isBuild": "False",
    "isRelease": "False"
  },
  "A04": {
    "worldName": "A04",
    "textDetail": "DJump_A04",
    "isCathedral": "False",
    "bgmLabelName": "0",
    "placeName": "Place_A04",
    "vehicle": ["0"],
    "TowerScreenTexture": "BG_A00_white00",
    "isBuild": "False",
    "isRelease": "False"
  },
  "A05": {
    "worldName": "A05",
    "textDetail": "DJump_A05",
    "isCathedral": "False",
    "bgmLabelName": "0",
    "placeName": "Place_A05",
    "vehicle": ["0"],
    "TowerScreenTexture": "BG_A00_white00",
    "isBuild": "False",
    "isRelease": "False"
  },
  "A06": {
    "worldName": "A06",
    "textDetail": "DJump_A06",
    "isCathedral": "False",
    "bgmLabelName": "0",
    "placeName": "Place_A06",
    "vehicle": ["0"],
    "TowerScreenTexture": "BG_A00_white00",
    "isBuild": "False",
    "isRelease": "False"
  },
  "A07": {
    "worldName": "A07",
    "textDetail": "DJump_A07",
    "isCathedral": "False",
    "bgmLabelName": "0",
    "placeName": "Place_A07",
    "vehicle": ["0"],
    "TowerScreenTexture": "BG_A00_white00",
    "isBuild": "False",
    "isRelease": "False"
  },
  "A08": {
    "worldName": "A08",
    "textDetail": "DJump_A08",
    "isCathedral": "False",
    "bgmLabelName": "0",
    "placeName": "Place_A08",
    "vehicle": ["0"],
    "TowerScreenTexture": "BG_A00_white00",
    "isBuild": "False",
    "isRelease": "False"
  },
  "A09": {
    "worldName": "A09",
    "textDetail": "DJump_A09",
    "isCathedral": "False",
    "bgmLabelName": "0",
    "placeName": "Place_A09",
    "vehicle": ["0"],
    "TowerScreenTexture": "BG_A00_white00",
    "isBuild": "False",
    "isRelease": "False"
  },
  "A10": {
    "worldName": "A10",
    "textDetail": "DJump_A10",
    "isCathedral": "False",
    "bgmLabelName": "0",
    "placeName": "Place_A10",
    "vehicle": ["0"],
    "TowerScreenTexture": "BG_A00_white00",
    "isBuild": "False",
    "isRelease": "False"
  },
  "W00": {
    "worldName": "W00",
    "textDetail": "WORLD_AREADATA_W00_DETALL",
    "isCathedral": "False",
    "bgmLabelName": "0",
    "placeName": "WORLD_AREADATA_W00_PLACE",
    "vehicle": ["0"],
    "TowerScreenTexture": "BG_A00_white00",
    "isBuild": "True",
    "isRelease": "True"
  },
  "W01": {
    "worldName": "W01",
    "textDetail": "WORLD_AREADATA_W01_DETALL",
    "isCathedral": "False",
    "bgmLabelName": "0",
    "placeName": "WORLD_AREADATA_W01_PLACE",
    "vehicle": ["0"],
    "TowerScreenTexture": "BG_W01_MiyakoCityl_00",
    "isBuild": "True",
    "isRelease": "True"
  },
  "W02": {
    "worldName": "W02",
    "textDetail": "WORLD_AREADATA_W02_DETALL",
    "isCathedral": "False",
    "bgmLabelName": "0",
    "placeName": "WORLD_AREADATA_W02_PLACE",
    "vehicle": ["0"],
    "TowerScreenTexture": "BG_W02_Fantasy_00",
    "isBuild": "True",
    "isRelease": "True"
  },
  "W03": {
    "worldName": "W03",
    "textDetail": "WORLD_AREADATA_W03_DETALL",
    "isCathedral": "False",
    "bgmLabelName": "0",
    "placeName": "WORLD_AREADATA_W03_PLACE",
    "vehicle": ["0"],
    "TowerScreenTexture": "BG_W03_Horroa_00",
    "isBuild": "True",
    "isRelease": "True"
  },
  "W04": {
    "worldName": "W04",
    "textDetail": "WORLD_AREADATA_W04_DETALL",
    "isCathedral": "False",
    "bgmLabelName": "0",
    "placeName": "WORLD_AREADATA_W04_PLACE",
    "vehicle": ["0"],
    "TowerScreenTexture": "BG_A00_white00",
    "isBuild": "True",
    "isRelease": "True"
  },
  "W05": {
    "worldName": "W05",
    "textDetail": "WORLD_AREADATA_W05_DETALL",
    "isCathedral": "False",
    "bgmLabelName": "0",
    "placeName": "WORLD_AREADATA_W05_PLACE",
    "vehicle": ["0"],
    "TowerScreenTexture": "BG_A00_white00",
    "isBuild": "True",
    "isRelease": "False"
  },
  "W06": {
    "worldName": "W06",
    "textDetail": "WORLD_AREADATA_W06_DETALL",
    "isCathedral": "False",
    "bgmLabelName": "0",
    "placeName": "WORLD_AREADATA_W06_PLACE",
    "vehicle": ["0"],
    "TowerScreenTexture": "BG_A00_white00",
    "isBuild": "True",
    "isRelease": "True"
  },
  "W07": {
    "worldName": "W07",
    "textDetail": "WORLD_AREADATA_W07_DETALL",
    "isCathedral": "False",
    "bgmLabelName": "0",
    "placeName": "WORLD_AREADATA_W07_PLACE",
    "vehicle": ["0"],
    "TowerScreenTexture": "BG_A00_white00",
    "isBuild": "True",
    "isRelease": "True"
  },
  "W08": {
    "worldName": "W08",
    "textDetail": "WORLD_AREADATA_W08_DETALL",
    "isCathedral": "False",
    "bgmLabelName": "0",
    "placeName": "WORLD_AREADATA_W08_PLACE",
    "vehicle": ["0"],
    "TowerScreenTexture": "BG_A00_white00",
    "isBuild": "True",
    "isRelease": "True"
  },
  "W09": {
    "worldName": "W09",
    "textDetail": "WORLD_AREADATA_W09_DETALL",
    "isCathedral": "False",
    "bgmLabelName": "0",
    "placeName": "WORLD_AREADATA_W09_PLACE",
    "vehicle": ["0"],
    "TowerScreenTexture": "BG_A00_white00",
    "isBuild": "True",
    "isRelease": "True"
  },
  "W10": {
    "worldName": "W10",
    "textDetail": "WORLD_AREADATA_W10_DETALL",
    "isCathedral": "False",
    "bgmLabelName": "0",
    "placeName": "WORLD_AREADATA_W10_PLACE",
    "vehicle": ["0"],
    "TowerScreenTexture": "BG_W10_MilitaryBase_00",
    "isBuild": "True",
    "isRelease": "True"
  },
  "W11": {
    "worldName": "W11",
    "textDetail": "WORLD_AREADATA_W11_DETALL",
    "isCathedral": "False",
    "bgmLabelName": "0",
    "placeName": "WORLD_AREADATA_W11_PLACE",
    "vehicle": ["0"],
    "TowerScreenTexture": "BG_A00_white00",
    "isBuild": "True",
    "isRelease": "True"
  },
  "W12": {
    "worldName": "W12",
    "textDetail": "WORLD_AREADATA_W12_DETALL",
    "isCathedral": "False",
    "bgmLabelName": "0",
    "placeName": "WORLD_AREADATA_W12_PLACE",
    "vehicle": ["0"],
    "TowerScreenTexture": "BG_W12_Frozen_00",
    "isBuild": "True",
    "isRelease": "True"
  },
  "W13": {
    "worldName": "W13",
    "textDetail": "WORLD_AREADATA_W13_DETALL",
    "isCathedral": "False",
    "bgmLabelName": "0",
    "placeName": "WORLD_AREADATA_W13_PLACE",
    "vehicle": ["0"],
    "TowerScreenTexture": "BG_A00_white00",
    "isBuild": "True",
    "isRelease": "True"
  },
  "W14": {
    "worldName": "W14",
    "textDetail": "WORLD_AREADATA_W14_DETALL",
    "isCathedral": "False",
    "bgmLabelName": "0",
    "placeName": "WORLD_AREADATA_W14_PLACE",
    "vehicle": ["0"],
    "TowerScreenTexture": "BG_A00_white00",
    "isBuild": "True",
    "isRelease": "True"
  },
  "W15": {
    "worldName": "W15",
    "textDetail": "WORLD_AREADATA_W15_DETALL",
    "isCathedral": "False",
    "bgmLabelName": "0",
    "placeName": "WORLD_AREADATA_W15_PLACE",
    "vehicle": ["0"],
    "TowerScreenTexture": "BG_A00_white00",
    "isBuild": "True",
    "isRelease": "True"
  },
  "W16": {
    "worldName": "W16",
    "textDetail": "WORLD_AREADATA_W16_DETALL",
    "isCathedral": "False",
    "bgmLabelName": "0",
    "placeName": "WORLD_AREADATA_W16_PLACE",
    "vehicle": ["0"],
    "TowerScreenTexture": "BG_A00_white00",
    "isBuild": "True",
    "isRelease": "False"
  },
  "W17": {
    "worldName": "W17",
    "textDetail": "WORLD_AREADATA_W17_DETALL",
    "isCathedral": "False",
    "bgmLabelName": "0",
    "placeName": "WORLD_AREADATA_W17_PLACE",
    "vehicle": ["0"],
    "TowerScreenTexture": "BG_A00_white00",
    "isBuild": "True",
    "isRelease": "True"
  },
  "W18": {
    "worldName": "W18",
    "textDetail": "WORLD_AREADATA_W18_DETALL",
    "isCathedral": "False",
    "bgmLabelName": "0",
    "placeName": "WORLD_AREADATA_W18_PLACE",
    "vehicle": ["0"],
    "TowerScreenTexture": "BG_A00_white00",
    "isBuild": "True",
    "isRelease": "True"
  },
  "W19": {
    "worldName": "W19",
    "textDetail": "WORLD_AREADATA_W19_DETALL",
    "isCathedral": "False",
    "bgmLabelName": "0",
    "placeName": "WORLD_AREADATA_W19_PLACE",
    "vehicle": ["0"],
    "TowerScreenTexture": "BG_A00_white00",
    "isBuild": "True",
    "isRelease": "True"
  },
  "W20": {
    "worldName": "W20",
    "textDetail": "WORLD_AREADATA_W20_DETALL",
    "isCathedral": "False",
    "bgmLabelName": "0",
    "placeName": "WORLD_AREADATA_W20_PLACE",
    "vehicle": ["0"],
    "TowerScreenTexture": "BG_A00_white00",
    "isBuild": "True",
    "isRelease": "False"
  }
}